{
"type": "FeatureCollection",
"name": "roi",
"crs": { "type": "name", "properties": { "name": "urn:ogc:def:crs:EPSG::3826" } },
"features": [
{ "type": "Feature", "properties": { "fid": 111 }, "geometry": { "type": "Polygon", "coordinates": [ [ [ 141868.31243380124215, 2582558.741495997644961 ], [ 142097.94617228579591, 2613779.361899517010897 ], [ 170070.635467938263901, 2613599.275601356755942 ], [ 169900.547168246295769, 2582380.304048916324973 ], [ 141868.31243380124215, 2582558.741495997644961 ] ] ] } }
]
}
